{
  "type": "FeatureCollection",
  "features": [
    {
      "type": "Feature",
      "properties": {
        "norad_id": 37846,
        "name": "GSAT0101 (GALILEO-PFM)",
        "group": "gnss",
        "lat": -40.19797723063563,
        "lon": -160.15588887819146,
        "alt_km": 23226.580139718153,
        "timestamp": "2025-12-20T07:33:51.055532+00:00",
        "meta_object_name": "GSAT0101 (GALILEO-PFM)",
        "meta_object_id": "2011-060A",
        "meta_epoch": "2025-12-18T18:24:05.988672",
        "meta_mean_motion": 1.70475824,
        "meta_eccentricity": 0.000318,
        "meta_inclination": 57.0514,
        "meta_ra_of_asc_node": 346.6564,
        "meta_arg_of_pericenter": 319.1021,
        "meta_mean_anomaly": 40.8874,
        "meta_ephemeris_type": 0,
        "meta_classification_type": "U",
        "meta_norad_cat_id": 37846,
        "meta_element_set_no": 999,
        "meta_rev_at_epoch": 8804,
        "meta_bstar": 0,
        "meta_mean_motion_dot": -7.5e-07,
        "meta_mean_motion_ddot": 0,
        "tle_line1": "1 37846U 11060A   25352.76673598 -.00000075  00000+0  00000+0 0  9995",
        "tle_line2": "2 37846  57.0514 346.6564 0003180 319.1021  40.8874  1.70475824 88044"
      },
      "geometry": {
        "type": "Point",
        "coordinates": [
          -160.15588887819146,
          -40.19797723063563
        ]
      }
    },
    {
      "type": "Feature",
      "properties": {
        "norad_id": 37847,
        "name": "GSAT0102 (GALILEO-FM2)",
        "group": "gnss",
        "lat": -56.589121809197636,
        "lon": -92.91212521604328,
        "alt_km": 23215.77001014438,
        "timestamp": "2025-12-20T07:33:51.055544+00:00",
        "meta_object_name": "GSAT0102 (GALILEO-FM2)",
        "meta_object_id": "2011-060B",
        "meta_epoch": "2025-12-18T09:18:10.933920",
        "meta_mean_motion": 1.7047603,
        "meta_eccentricity": 0.0005099,
        "meta_inclination": 57.0522,
        "meta_ra_of_asc_node": 346.6671,
        "meta_arg_of_pericenter": 311.9548,
        "meta_mean_anomaly": 220.8374,
        "meta_ephemeris_type": 0,
        "meta_classification_type": "U",
        "meta_norad_cat_id": 37847,
        "meta_element_set_no": 999,
        "meta_rev_at_epoch": 8804,
        "meta_bstar": 0,
        "meta_mean_motion_dot": -7.6e-07,
        "meta_mean_motion_ddot": 0,
        "tle_line1": "1 37847U 11060B   25352.38762655 -.00000076  00000+0  00000+0 0  9998",
        "tle_line2": "2 37847  57.0522 346.6671 0005099 311.9548 220.8374  1.70476030 88043"
      },
      "geometry": {
        "type": "Point",
        "coordinates": [
          -92.91212521604328,
          -56.589121809197636
        ]
      }
    },
    {
      "type": "Feature",
      "properties": {
        "norad_id": 37867,
        "name": "COSMOS 2476 (744)",
        "group": "gnss",
        "lat": 63.6392288990606,
        "lon": -169.9448025652585,
        "alt_km": 19167.01420431873,
        "timestamp": "2025-12-20T07:33:51.055565+00:00",
        "meta_object_name": "COSMOS 2476 (744)",
        "meta_object_id": "2011-064A",
        "meta_epoch": "2025-12-19T06:05:26.552256",
        "meta_mean_motion": 2.13103916,
        "meta_eccentricity": 0.0024321,
        "meta_inclination": 65.1662,
        "meta_ra_of_asc_node": 78.9509,
        "meta_arg_of_pericenter": 234.6548,
        "meta_mean_anomaly": 130.4776,
        "meta_ephemeris_type": 0,
        "meta_classification_type": "U",
        "meta_norad_cat_id": 37867,
        "meta_element_set_no": 999,
        "meta_rev_at_epoch": 10993,
        "meta_bstar": 0,
        "meta_mean_motion_dot": -3e-07,
        "meta_mean_motion_ddot": 0,
        "tle_line1": "1 37867U 11064A   25353.25377954 -.00000030  00000+0  00000+0 0  9995",
        "tle_line2": "2 37867  65.1662  78.9509 0024321 234.6548 130.4776  2.13103916109937"
      },
      "geometry": {
        "type": "Point",
        "coordinates": [
          -169.9448025652585,
          63.6392288990606
        ]
      }
    },
    {
      "type": "Feature",
      "properties": {
        "norad_id": 37868,
        "name": "COSMOS 2477 (745)",
        "group": "gnss",
        "lat": -63.20666242420688,
        "lon": 12.788108241134998,
        "alt_km": 19098.453236594974,
        "timestamp": "2025-12-20T07:33:51.055578+00:00",
        "meta_object_name": "COSMOS 2477 (745)",
        "meta_object_id": "2011-064B",
        "meta_epoch": "2025-12-19T13:37:36.499584",
        "meta_mean_motion": 2.13102956,
        "meta_eccentricity": 0.0021226,
        "meta_inclination": 65.1727,
        "meta_ra_of_asc_node": 79.0178,
        "meta_arg_of_pericenter": 234.8822,
        "meta_mean_anomaly": 192.052,
        "meta_ephemeris_type": 0,
        "meta_classification_type": "U",
        "meta_norad_cat_id": 37868,
        "meta_element_set_no": 999,
        "meta_rev_at_epoch": 10993,
        "meta_bstar": 0,
        "meta_mean_motion_dot": -2.7e-07,
        "meta_mean_motion_ddot": 0,
        "tle_line1": "1 37868U 11064B   25353.56778356 -.00000027  00000+0  00000+0 0  9997",
        "tle_line2": "2 37868  65.1727  79.0178 0021226 234.8822 192.0520  2.13102956109936"
      },
      "geometry": {
        "type": "Point",
        "coordinates": [
          12.788108241134998,
          -63.20666242420688
        ]
      }
    },
    {
      "type": "Feature",
      "properties": {
        "norad_id": 37869,
        "name": "COSMOS 2475 (743)",
        "group": "gnss",
        "lat": -48.94528003878801,
        "lon": -68.9424439082652,
        "alt_km": 19069.7861964713,
        "timestamp": "2025-12-20T07:33:51.055590+00:00",
        "meta_object_name": "COSMOS 2475 (743)",
        "meta_object_id": "2011-064C",
        "meta_epoch": "2025-12-19T14:11:24.597888",
        "meta_mean_motion": 2.13101629,
        "meta_eccentricity": 0.0026449,
        "meta_inclination": 65.1796,
        "meta_ra_of_asc_node": 79.0372,
        "meta_arg_of_pericenter": 248.8375,
        "meta_mean_anomaly": 152.0175,
        "meta_ephemeris_type": 0,
        "meta_classification_type": "U",
        "meta_norad_cat_id": 37869,
        "meta_element_set_no": 999,
        "meta_rev_at_epoch": 10994,
        "meta_bstar": 0,
        "meta_mean_motion_dot": -2.6e-07,
        "meta_mean_motion_ddot": 0,
        "tle_line1": "1 37869U 11064C   25353.59125692 -.00000026  00000+0  00000+0 0  9999",
        "tle_line2": "2 37869  65.1796  79.0372 0026449 248.8375 152.0175  2.13101629109948"
      },
      "geometry": {
        "type": "Point",
        "coordinates": [
          -68.9424439082652,
          -48.94528003878801
        ]
      }
    },
    {
      "type": "Feature",
      "properties": {
        "norad_id": 37948,
        "name": "BEIDOU-2 IGSO-5 (C10)",
        "group": "gnss",
        "lat": 16.633341444543237,
        "lon": -70.6742180786358,
        "alt_km": 36214.71495213798,
        "timestamp": "2025-12-20T07:33:51.055601+00:00",
        "meta_object_name": "BEIDOU-2 IGSO-5 (C10)",
        "meta_object_id": "2011-073A",
        "meta_epoch": "2025-12-19T18:17:17.237184",
        "meta_mean_motion": 1.00289893,
        "meta_eccentricity": 0.01098798,
        "meta_inclination": 48.0071,
        "meta_ra_of_asc_node": 273.7726,
        "meta_arg_of_pericenter": 222.325,
        "meta_mean_anomaly": 320.2143,
        "meta_ephemeris_type": 0,
        "meta_classification_type": "U",
        "meta_norad_cat_id": 37948,
        "meta_element_set_no": 999,
        "meta_rev_at_epoch": 5133,
        "meta_bstar": 0,
        "meta_mean_motion_dot": -1.59e-06,
        "meta_mean_motion_ddot": 0,
        "tle_line1": "1 37948U 11073A   25353.76200506 -.00000159  00000+0  00000+0 0  9991",
        "tle_line2": "2 37948  48.0071 273.7726 0109879 222.3250 320.2143  1.00289893 51334"
      },
      "geometry": {
        "type": "Point",
        "coordinates": [
          -70.6742180786358,
          16.633341444543237
        ]
      }
    },
    {
      "type": "Feature",
      "properties": {
        "norad_id": 37951,
        "name": "LUCH 5A (SDCM/PRN 140)",
        "group": "gnss",
        "lat": -7.621096834560372,
        "lon": 9.959798377632957,
        "alt_km": 35792.94344081383,
        "timestamp": "2025-12-20T07:33:51.055613+00:00",
        "meta_object_name": "LUCH 5A (SDCM/PRN 140)",
        "meta_object_id": "2011-074B",
        "meta_epoch": "2025-12-19T12:20:45.341088",
        "meta_mean_motion": 1.0026908,
        "meta_eccentricity": 0.0005087,
        "meta_inclination": 8.2961,
        "meta_ra_of_asc_node": 76.4843,
        "meta_arg_of_pericenter": 189.4736,
        "meta_mean_anomaly": 174.6688,
        "meta_ephemeris_type": 0,
        "meta_classification_type": "U",
        "meta_norad_cat_id": 37951,
        "meta_element_set_no": 999,
        "meta_rev_at_epoch": 5125,
        "meta_bstar": 0,
        "meta_mean_motion_dot": -3.2e-07,
        "meta_mean_motion_ddot": 0,
        "tle_line1": "1 37951U 11074B   25353.51441367 -.00000032  00000+0  00000+0 0  9991",
        "tle_line2": "2 37951   8.2961  76.4843 0005087 189.4736 174.6688  1.00269080 51252"
      },
      "geometry": {
        "type": "Point",
        "coordinates": [
          9.959798377632957,
          -7.621096834560372
        ]
      }
    }
  ]
}